GLOBALSTAR M023         
1 25621U 99004A   25273.48508134 -.00000068  00000+0  19865-3 0  9996
2 25621  52.0093  92.8044 0010103   4.2720  20.2477 12.62507344229036
GLOBALSTAR M040         
1 25622U 99004B   25273.50153080 -.00000059  00000+0  25176-3 0  9998
2 25622  51.9901  97.0649 0000107 126.7721 258.7630 12.62018555228551
GLOBALSTAR M036         
1 25623U 99004C   25273.52456556 -.00000026  00000+0  81991-3 0  9996
2 25623  51.9989 322.6749 0010577 251.2287 251.1699 11.86610024191486
GLOBALSTAR M038         
1 25624U 99004D   25273.38271574 -.00000078  00000+0  14164-3 0  9991
2 25624  51.9955 128.6196 0000953 289.0345 241.8955 12.32532765215341
GLOBALSTAR M022         
1 25649U 99012A   25273.47791103 -.00000048  00000+0  47047-3 0  9995
2 25649  52.0077   4.6721 0002667  34.8460  47.8237 12.02502956189040
GLOBALSTAR M041         
1 25650U 99012B   25273.37814380 -.00000071  00000+0  18466-3 0  9998
2 25650  52.0003 249.6021 0001284 153.8136 206.2766 11.96682931190876
GLOBALSTAR M046         
1 25651U 99012C   25273.48962404 -.00000143  00000+0 -59750-3 0  9994
2 25651  52.0062 310.9337 0002258 105.7540  35.7517 12.09412101196400
GLOBALSTAR M037         
1 25652U 99012D   25273.08474127 -.00000076  00000+0  15653-3 0  9999
2 25652  51.9993 224.6049 0002588  57.9707  21.7806 12.62451593224520
